SL-8 R/B                
1 11574U 79089B   26086.36273591  .00000288  00000+0  95069-4 0  9999
2 11574  74.0683  58.3251 0016808 228.8058 131.1650 14.42360871438657
SL-14 R/B               
1 11672U 80005B   26086.84832405  .00000560  00000+0  53994-4 0  9990
2 11672  82.5114 290.0076 0017213 101.8270 258.4881 14.90950195479196
SL-8 R/B                
1 12139U 81003B   26086.54635690  .00022551  00000+0  56584-3 0  9993
2 12139  82.9338 273.5020 0260952 116.4931 246.3319 15.11745131317377
SL-3 R/B                
1 12465U 81046B   26086.82173138  .00011744  00000+0  26928-3 0  9998
2 12465  81.2285 267.9599 0018268 318.1479  41.8366 15.42427312441223
SL-3 R/B                
1 12904U 81103B   26086.79211131  .00005022  00000+0  22117-3 0  9990
2 12904  81.1604 192.1971 0012699 221.6352 138.3913 15.21584384975983
SL-3 R/B                
1 13068U 82013B   26086.85863221  .00003360  00000+0  14420-3 0  9994
2 13068  81.1740 139.4747 0023462 117.7874 242.5741 15.22175888407113
SL-3 R/B                
1 13154U 82039B   26086.81196203  .00002640  00000+0  15885-3 0  9999
2 13154  81.1568 195.0663 0028696 264.5895  95.2056 15.10179186384376
SL-3 R/B                
1 13403U 82079B   26086.77733791  .00005975  00000+0  23596-3 0  9996
2 13403  81.1483 171.7207 0025527 105.2749 255.1309 15.25036919380458
SL-14 R/B               
1 13553U 82092B   26086.83701373  .00000410  00000+0  43301-4 0  9991
2 13553  82.5660 124.4231 0018993 238.6575 294.1377 14.86682242331620
SL-3 R/B                
1 13819U 83010B   26086.81104307  .00014212  00000+0  27986-3 0  9994
2 13819  81.1058 340.0223 0016098 349.4554  10.6350 15.46955675360747
SL-3 R/B                
1 14208U 83075B   26086.83188494  .00011140  00000+0  28988-3 0  9999
2 14208  97.6143  92.1021 0022146 159.8510 200.3614 15.38832987332947
COSMOS 1536             
1 14699U 84013A   26086.77676960  .00005952  00000+0  24348-3 0  9999
2 14699  82.5416  89.8629 0013206 211.9393 148.1045 15.24061050275370
SL-14 R/B               
1 14820U 84027B   26086.80679953  .00000547  00000+0  59745-4 0  9994
2 14820  82.5416 228.0192 0016482 273.7895  86.1436 14.85994852250324
SL-8 R/B                
1 15483U 85006B   26086.83578697  .00000306  00000+0  11000-3 0  9998
2 15483  74.0450 227.7553 0017716 140.3973  11.9798 14.37795997156630
SL-12 R/B(2)            
1 15772U 85042D   26086.65398539  .00000052  00000+0  44980-4 0  9996
2 15772  71.1083  49.7722 0032861  98.3616  73.6899 14.21987316116943
SL-14 R/B               
1 15945U 85069B   26086.85338560  .00000504  00000+0  54043-4 0  9990
2 15945  82.5305   7.8580 0019977 129.1305 231.1692 14.86452384175531
SL-16 R/B               
1 16182U 85097B   26086.80284661 -.00000029  00000+0  96799-5 0  9990
2 16182  71.0008 102.4191 0009477 238.6472 293.8767 14.16603547 89795
